{"type": "FeatureCollection", "features": [{"type": "Feature", "properties": {"norad_id": 2807, "name": "OPS 7218 (TRANSIT 16)", "group": "nnss", "lat": 9.054926293490135, "lon": 173.70009900482256, "alt_km": 1067.8408495879576, "timestamp": "2025-12-20T16:47:36.555070+00:00", "meta": {"OBJECT_NAME": "OPS 7218 (TRANSIT 16)", "OBJECT_ID": "1967-048A", "EPOCH": "2025-12-20T11:25:50.128032", "MEAN_MOTION": 13.5072386, "ECCENTRICITY": 0.0022147, "INCLINATION": 89.6731, "RA_OF_ASC_NODE": 353.7596, "ARG_OF_PERICENTER": 93.4595, "MEAN_ANOMALY": 71.2031, "EPHEMERIS_TYPE": 0, "CLASSIFICATION_TYPE": "U", "NORAD_CAT_ID": 2807, "ELEMENT_SET_NO": 999, "REV_AT_EPOCH": 88380, "BSTAR": 0.00015222, "MEAN_MOTION_DOT": 1.09e-06, "MEAN_MOTION_DDOT": 0}, "tle": {"line1": "1 02807U 67048A   25354.47627463  .00000109  00000+0  15222-3 0  9994", "line2": "2 02807  89.6731 353.7596 0022147  93.4595  71.2031 13.50723860883808"}}, "geometry": {"type": "Point", "coordinates": [173.70009900482256, 9.054926293490135]}}, {"type": "Feature", "properties": {"norad_id": 2965, "name": "OPS 4947 (TRANSIT 17)", "group": "nnss", "lat": -46.306716507861225, "lon": 23.04171905588301, "alt_km": 1074.023272380825, "timestamp": "2025-12-20T16:47:36.555092+00:00", "meta": {"OBJECT_NAME": "OPS 4947 (TRANSIT 17)", "OBJECT_ID": "1967-092A", "EPOCH": "2025-12-20T03:07:42.632256", "MEAN_MOTION": 13.53455414, "ECCENTRICITY": 0.00466956, "INCLINATION": 89.2488, "RA_OF_ASC_NODE": 23.8719, "ARG_OF_PERICENTER": 212.481, "MEAN_ANOMALY": 208.1838, "EPHEMERIS_TYPE": 0, "CLASSIFICATION_TYPE": "U", "NORAD_CAT_ID": 2965, "ELEMENT_SET_NO": 999, "REV_AT_EPOCH": 87197, "BSTAR": 0.00019201817, "MEAN_MOTION_DOT": 1.41e-06, "MEAN_MOTION_DDOT": 0}, "tle": {"line1": "1 02965U 67092A   25354.13035454  .00000141  00000+0  19202-3 0  9992", "line2": "2 02965  89.2488  23.8719 0046695 212.4810 208.1838 13.53455414871978"}}, "geometry": {"type": "Point", "coordinates": [23.04171905588301, -46.306716507861225]}}, {"type": "Feature", "properties": {"norad_id": 3133, "name": "OPS 7034 (TRANSIT 18)", "group": "nnss", "lat": 47.47583233284525, "lon": -86.36954888243915, "alt_km": 1070.265620110189, "timestamp": "2025-12-20T16:47:36.555106+00:00", "meta": {"OBJECT_NAME": "OPS 7034 (TRANSIT 18)", "OBJECT_ID": "1968-012A", "EPOCH": "2025-12-20T06:27:21.173184", "MEAN_MOTION": 13.5156736, "ECCENTRICITY": 0.0074579, "INCLINATION": 90.0284, "RA_OF_ASC_NODE": 273.6602, "ARG_OF_PERICENTER": 147.4281, "MEAN_ANOMALY": 326.4183, "EPHEMERIS_TYPE": 0, "CLASSIFICATION_TYPE": "U", "NORAD_CAT_ID": 3133, "ELEMENT_SET_NO": 999, "REV_AT_EPOCH": 57020, "BSTAR": 0.000156, "MEAN_MOTION_DOT": 1.13e-06, "MEAN_MOTION_DDOT": 0}, "tle": {"line1": "1 03133U 68012A   25354.26899506  .00000113  00000+0  15600-3 0  9990", "line2": "2 03133  90.0284 273.6602 0074579 147.4281 326.4183 13.51567360570208"}}, "geometry": {"type": "Point", "coordinates": [-86.36954888243915, 47.47583233284525]}}, {"type": "Feature", "properties": {"norad_id": 4507, "name": "NNSS 19 (TRANSIT 19)", "group": "nnss", "lat": 14.459369956862538, "lon": -125.46198529759864, "alt_km": 1097.9639467929674, "timestamp": "2025-12-20T16:47:36.555117+00:00", "meta": {"OBJECT_NAME": "NNSS 19 (TRANSIT 19)", "OBJECT_ID": "1970-067A", "EPOCH": "2025-12-20T06:03:33.282720", "MEAN_MOTION": 13.51316549, "ECCENTRICITY": 0.0170245, "INCLINATION": 90.0051, "RA_OF_ASC_NODE": 234.5391, "ARG_OF_PERICENTER": 271.3961, "MEAN_ANOMALY": 86.7694, "EPHEMERIS_TYPE": 0, "CLASSIFICATION_TYPE": "U", "NORAD_CAT_ID": 4507, "ELEMENT_SET_NO": 999, "REV_AT_EPOCH": 72323, "BSTAR": 0.00013929, "MEAN_MOTION_DOT": 1.07e-06, "MEAN_MOTION_DDOT": 0}, "tle": {"line1": "1 04507U 70067A   25354.25246855  .00000107  00000+0  13929-3 0  9996", "line2": "2 04507  90.0051 234.5391 0170245 271.3961  86.7694 13.51316549723233"}}, "geometry": {"type": "Point", "coordinates": [-125.46198529759864, 14.459369956862538]}}, {"type": "Feature", "properties": {"norad_id": 6909, "name": "NNSS 20 (TRANSIT 20)", "group": "nnss", "lat": -60.59807782008643, "lon": -105.32044191008072, "alt_km": 1049.396709993316, "timestamp": "2025-12-20T16:47:36.555128+00:00", "meta": {"OBJECT_NAME": "NNSS 20 (TRANSIT 20)", "OBJECT_ID": "1973-081A", "EPOCH": "2025-12-20T06:34:53.193792", "MEAN_MOTION": 13.71437993, "ECCENTRICITY": 0.015642, "INCLINATION": 89.8562, "RA_OF_ASC_NODE": 254.9413, "ARG_OF_PERICENTER": 56.0029, "MEAN_ANOMALY": 305.5882, "EPHEMERIS_TYPE": 0, "CLASSIFICATION_TYPE": "U", "NORAD_CAT_ID": 6909, "ELEMENT_SET_NO": 999, "REV_AT_EPOCH": 80464, "BSTAR": 0.00024105, "MEAN_MOTION_DOT": 2.48e-06, "MEAN_MOTION_DDOT": 0}, "tle": {"line1": "1 06909U 73081A   25354.27422678  .00000248  00000+0  24105-3 0  9998", "line2": "2 06909  89.8562 254.9413 0156420  56.0029 305.5882 13.71437993804642"}}, "geometry": {"type": "Point", "coordinates": [-105.32044191008072, -60.59807782008643]}}, {"type": "Feature", "properties": {"norad_id": 10457, "name": "TRANSAT", "group": "nnss", "lat": -50.092194165810156, "lon": 77.89415735486965, "alt_km": 1098.6829289170582, "timestamp": "2025-12-20T16:47:36.555139+00:00", "meta": {"OBJECT_NAME": "TRANSAT", "OBJECT_ID": "1977-106A", "EPOCH": "2025-12-20T04:51:30.136896", "MEAN_MOTION": 13.48944671, "ECCENTRICITY": 0.00261, "INCLINATION": 89.648, "RA_OF_ASC_NODE": 78.3329, "ARG_OF_PERICENTER": 168.1289, "MEAN_ANOMALY": 248.1407, "EPHEMERIS_TYPE": 0, "CLASSIFICATION_TYPE": "U", "NORAD_CAT_ID": 10457, "ELEMENT_SET_NO": 999, "REV_AT_EPOCH": 36844, "BSTAR": 0.00011686, "MEAN_MOTION_DOT": 8.4e-07, "MEAN_MOTION_DDOT": 0}, "tle": {"line1": "1 10457U 77106A   25354.20243214  .00000084  00000+0  11686-3 0  9991", "line2": "2 10457  89.6480  78.3329 0026100 168.1289 248.1407 13.48944671368448"}}, "geometry": {"type": "Point", "coordinates": [77.89415735486965, -50.092194165810156]}}, {"type": "Feature", "properties": {"norad_id": 12458, "name": "NOVA 1", "group": "nnss", "lat": -17.15612409000506, "lon": -88.68172384503158, "alt_km": 1181.6858101206126, "timestamp": "2025-12-20T16:47:36.555150+00:00", "meta": {"OBJECT_NAME": "NOVA 1", "OBJECT_ID": "1981-044A", "EPOCH": "2025-12-20T12:13:47.959104", "MEAN_MOTION": 13.23279081, "ECCENTRICITY": 0.0015855, "INCLINATION": 89.8528, "RA_OF_ASC_NODE": 91.2755, "ARG_OF_PERICENTER": 84.9093, "MEAN_ANOMALY": 286.6747, "EPHEMERIS_TYPE": 0, "CLASSIFICATION_TYPE": "U", "NORAD_CAT_ID": 12458, "ELEMENT_SET_NO": 999, "REV_AT_EPOCH": 15289, "BSTAR": 7.1368e-05, "MEAN_MOTION_DOT": 3.9e-07, "MEAN_MOTION_DDOT": 0}, "tle": {"line1": "1 12458U 81044A   25354.50958286  .00000039  00000+0  71368-4 0  9999", "line2": "2 12458  89.8528  91.2755 0015855  84.9093 286.6747 13.23279081152899"}}, "geometry": {"type": "Point", "coordinates": [-88.68172384503158, -17.15612409000506]}}, {"type": "Feature", "properties": {"norad_id": 15362, "name": "NOVA 3", "group": "nnss", "lat": 63.13510529029149, "lon": 80.38708454060496, "alt_km": 1176.2046879072695, "timestamp": "2025-12-20T16:47:36.555160+00:00", "meta": {"OBJECT_NAME": "NOVA 3", "OBJECT_ID": "1984-110A", "EPOCH": "2025-12-20T05:50:42.318240", "MEAN_MOTION": 13.23045429, "ECCENTRICITY": 0.0030003, "INCLINATION": 90.1222, "RA_OF_ASC_NODE": 80.6231, "ARG_OF_PERICENTER": 310.4079, "MEAN_ANOMALY": 100.9335, "EPHEMERIS_TYPE": 0, "CLASSIFICATION_TYPE": "U", "NORAD_CAT_ID": 15362, "ELEMENT_SET_NO": 999, "REV_AT_EPOCH": 98798, "BSTAR": 0.00010221, "MEAN_MOTION_DOT": 5.1e-07, "MEAN_MOTION_DDOT": 0}, "tle": {"line1": "1 15362U 84110A   25354.24354535  .00000051  00000+0  10221-3 0  9995", "line2": "2 15362  90.1222  80.6231 0030003 310.4079 100.9335 13.23045429987980"}}, "geometry": {"type": "Point", "coordinates": [80.38708454060496, 63.13510529029149]}}, {"type": "Feature", "properties": {"norad_id": 15935, "name": "OSCAR 30", "group": "nnss", "lat": 21.349413162873997, "lon": -79.95792317489409, "alt_km": 1136.8204636087567, "timestamp": "2025-12-20T16:47:36.555171+00:00", "meta": {"OBJECT_NAME": "OSCAR 30", "OBJECT_ID": "1985-066A", "EPOCH": "2025-12-20T07:17:41.512416", "MEAN_MOTION": 13.36079379, "ECCENTRICITY": 0.0169186, "INCLINATION": 90.1655, "RA_OF_ASC_NODE": 99.9709, "ARG_OF_PERICENTER": 62.7881, "MEAN_ANOMALY": 351.3123, "EPHEMERIS_TYPE": 0, "CLASSIFICATION_TYPE": "U", "NORAD_CAT_ID": 15935, "ELEMENT_SET_NO": 999, "REV_AT_EPOCH": 96554, "BSTAR": 0.00010295, "MEAN_MOTION_DOT": 6.7e-07, "MEAN_MOTION_DDOT": 0}, "tle": {"line1": "1 15935U 85066A   25354.30395269  .00000067  00000+0  10295-3 0  9996", "line2": "2 15935  90.1655  99.9709 0169186  62.7881 351.3123 13.36079379965542"}}, "geometry": {"type": "Point", "coordinates": [-79.95792317489409, 21.349413162873997]}}, {"type": "Feature", "properties": {"norad_id": 15936, "name": "OSCAR 24", "group": "nnss", "lat": -48.622925318912976, "lon": -87.75729624159814, "alt_km": 1251.530011545302, "timestamp": "2025-12-20T16:47:36.555181+00:00", "meta": {"OBJECT_NAME": "OSCAR 24", "OBJECT_ID": "1985-066B", "EPOCH": "2025-12-20T06:56:23.653824", "MEAN_MOTION": 13.35936773, "ECCENTRICITY": 0.0170312, "INCLINATION": 90.1791, "RA_OF_ASC_NODE": 92.4389, "ARG_OF_PERICENTER": 69.2667, "MEAN_ANOMALY": 345.2084, "EPHEMERIS_TYPE": 0, "CLASSIFICATION_TYPE": "U", "NORAD_CAT_ID": 15936, "ELEMENT_SET_NO": 999, "REV_AT_EPOCH": 96744, "BSTAR": 0.00010129, "MEAN_MOTION_DOT": 6.6e-07, "MEAN_MOTION_DDOT": 0}, "tle": {"line1": "1 15936U 85066B   25354.28916266  .00000066  00000+0  10129-3 0  9995", "line2": "2 15936  90.1791  92.4389 0170312  69.2667 345.2084 13.35936773967441"}}, "geometry": {"type": "Point", "coordinates": [-87.75729624159814, -48.622925318912976]}}]}